CCSDS_OMM_VERS = 2.0
CREATION_DATE  = 
ORIGINATOR     = 

OBJECT_NAME    = SL-3 R/B
OBJECT_ID      = 1988-032B
CENTER_NAME    = EARTH
REF_FRAME      = TEME
TIME_SYSTEM    = UTC
MEAN_ELEMENT_THEORY = SGP/SGP4

EPOCH          = 2026-03-27T20:04:01.377120
MEAN_MOTION    = 15.20102569
ECCENTRICITY   = .00262324
INCLINATION    = 97.5211
RA_OF_ASC_NODE = 70.0282
ARG_OF_PERICENTER = 166.6826
MEAN_ANOMALY   = 193.5107

EPHEMERIS_TYPE = 0
CLASSIFICATION_TYPE = U
NORAD_CAT_ID   = 19046
ELEMENT_SET_NO = 999
REV_AT_EPOCH   = 5486
BSTAR          = .24112541E-3
MEAN_MOTION_DOT = .5185E-4
MEAN_MOTION_DDOT = 0

CCSDS_OMM_VERS = 2.0
CREATION_DATE  = 
ORIGINATOR     = 

OBJECT_NAME    = SL-16 R/B
OBJECT_ID      = 1988-039B
CENTER_NAME    = EARTH
REF_FRAME      = TEME
TIME_SYSTEM    = UTC
MEAN_ELEMENT_THEORY = SGP/SGP4

EPOCH          = 2026-03-27T21:04:02.505792
MEAN_MOTION    = 14.19618694
ECCENTRICITY   = .00236164
INCLINATION    = 71.0165
RA_OF_ASC_NODE = 30.0872
ARG_OF_PERICENTER = 308.2689
MEAN_ANOMALY   = 51.6311

EPHEMERIS_TYPE = 0
CLASSIFICATION_TYPE = U
NORAD_CAT_ID   = 19120
ELEMENT_SET_NO = 999
REV_AT_EPOCH   = 96096
BSTAR          = .10151622E-3
MEAN_MOTION_DOT = .167E-5
MEAN_MOTION_DDOT = 0

CCSDS_OMM_VERS = 2.0
CREATION_DATE  = 
ORIGINATOR     = 

OBJECT_NAME    = COSMOS 1953
OBJECT_ID      = 1988-050A
CENTER_NAME    = EARTH
REF_FRAME      = TEME
TIME_SYSTEM    = UTC
MEAN_ELEMENT_THEORY = SGP/SGP4

EPOCH          = 2026-03-27T21:19:27.851520
MEAN_MOTION    = 15.28801186
ECCENTRICITY   = .00124115
INCLINATION    = 82.5083
RA_OF_ASC_NODE = 139.9409
ARG_OF_PERICENTER = 65.9115
MEAN_ANOMALY   = 294.3422

EPHEMERIS_TYPE = 0
CLASSIFICATION_TYPE = U
NORAD_CAT_ID   = 19210
ELEMENT_SET_NO = 999
REV_AT_EPOCH   = 4056
BSTAR          = .24343432E-3
MEAN_MOTION_DOT = .686E-4
MEAN_MOTION_DDOT = 0

CCSDS_OMM_VERS = 2.0
CREATION_DATE  = 
ORIGINATOR     = 

OBJECT_NAME    = SL-8 R/B
OBJECT_ID      = 1988-053B
CENTER_NAME    = EARTH
REF_FRAME      = TEME
TIME_SYSTEM    = UTC
MEAN_ELEMENT_THEORY = SGP/SGP4

EPOCH          = 2026-03-27T11:10:23.762784
MEAN_MOTION    = 14.38927931
ECCENTRICITY   = .0021488
INCLINATION    = 74.0454
RA_OF_ASC_NODE = 79.6966
ARG_OF_PERICENTER = 256.6468
MEAN_ANOMALY   = 220.2542

EPHEMERIS_TYPE = 0
CLASSIFICATION_TYPE = U
NORAD_CAT_ID   = 19257
ELEMENT_SET_NO = 999
REV_AT_EPOCH   = 97915
BSTAR          = .11726E-3
MEAN_MOTION_DOT = .336E-5
MEAN_MOTION_DDOT = 0

CCSDS_OMM_VERS = 2.0
CREATION_DATE  = 
ORIGINATOR     = 

OBJECT_NAME    = COSMOS 1975
OBJECT_ID      = 1988-093A
CENTER_NAME    = EARTH
REF_FRAME      = TEME
TIME_SYSTEM    = UTC
MEAN_ELEMENT_THEORY = SGP/SGP4

EPOCH          = 2026-03-27T12:50:34.247040
MEAN_MOTION    = 15.28303569
ECCENTRICITY   = .0013375
INCLINATION    = 82.5165
RA_OF_ASC_NODE = 99.7641
ARG_OF_PERICENTER = 106.3111
MEAN_ANOMALY   = 253.9601

EPHEMERIS_TYPE = 0
CLASSIFICATION_TYPE = U
NORAD_CAT_ID   = 19573
ELEMENT_SET_NO = 999
REV_AT_EPOCH   = 2213
BSTAR          = .22496E-3
MEAN_MOTION_DOT = .6249E-4
MEAN_MOTION_DDOT = 0

CCSDS_OMM_VERS = 2.0
CREATION_DATE  = 
ORIGINATOR     = 

OBJECT_NAME    = SL-14 R/B
OBJECT_ID      = 1988-093B
CENTER_NAME    = EARTH
REF_FRAME      = TEME
TIME_SYSTEM    = UTC
MEAN_ELEMENT_THEORY = SGP/SGP4

EPOCH          = 2026-03-27T21:57:37.885248
MEAN_MOTION    = 14.85677818
ECCENTRICITY   = .00201898
INCLINATION    = 82.5338
RA_OF_ASC_NODE = 24.9375
ARG_OF_PERICENTER = 342.2296
MEAN_ANOMALY   = 81.6591

EPHEMERIS_TYPE = 0
CLASSIFICATION_TYPE = U
NORAD_CAT_ID   = 19574
ELEMENT_SET_NO = 999
REV_AT_EPOCH   = 372
BSTAR          = .64424454E-4
MEAN_MOTION_DOT = .584E-5
MEAN_MOTION_DDOT = 0

CCSDS_OMM_VERS = 2.0
CREATION_DATE  = 
ORIGINATOR     = 

OBJECT_NAME    = SL-16 R/B
OBJECT_ID      = 1988-102B
CENTER_NAME    = EARTH
REF_FRAME      = TEME
TIME_SYSTEM    = UTC
MEAN_ELEMENT_THEORY = SGP/SGP4

EPOCH          = 2026-03-27T18:36:45.450720
MEAN_MOTION    = 14.16153685
ECCENTRICITY   = .00150694
INCLINATION    = 70.9971
RA_OF_ASC_NODE = 113.4429
ARG_OF_PERICENTER = 334.4229
MEAN_ANOMALY   = 25.6147

EPHEMERIS_TYPE = 0
CLASSIFICATION_TYPE = U
NORAD_CAT_ID   = 19650
ELEMENT_SET_NO = 999
REV_AT_EPOCH   = 92945
BSTAR          = -.71179054E-4
MEAN_MOTION_DOT = -.189E-5
MEAN_MOTION_DDOT = 0

CCSDS_OMM_VERS = 2.0
CREATION_DATE  = 
ORIGINATOR     = 

OBJECT_NAME    = INTERCOSMOS 24
OBJECT_ID      = 1989-080A
CENTER_NAME    = EARTH
REF_FRAME      = TEME
TIME_SYSTEM    = UTC
MEAN_ELEMENT_THEORY = SGP/SGP4

EPOCH          = 2026-03-27T12:22:45.840576
MEAN_MOTION    = 12.59580721
ECCENTRICITY   = .1186831
INCLINATION    = 82.6011
RA_OF_ASC_NODE = 92.7922
ARG_OF_PERICENTER = 251.4058
MEAN_ANOMALY   = 95.4735

EPHEMERIS_TYPE = 0
CLASSIFICATION_TYPE = U
NORAD_CAT_ID   = 20261
ELEMENT_SET_NO = 999
REV_AT_EPOCH   = 66904
BSTAR          = .14984E-3
MEAN_MOTION_DOT = .506E-5
MEAN_MOTION_DDOT = 0

CCSDS_OMM_VERS = 2.0
CREATION_DATE  = 
ORIGINATOR     = 

OBJECT_NAME    = SL-14 R/B
OBJECT_ID      = 1989-080C
CENTER_NAME    = EARTH
REF_FRAME      = TEME
TIME_SYSTEM    = UTC
MEAN_ELEMENT_THEORY = SGP/SGP4

EPOCH          = 2026-03-27T21:07:19.488288
MEAN_MOTION    = 12.50511143
ECCENTRICITY   = .12308902
INCLINATION    = 82.5957
RA_OF_ASC_NODE = 161.5139
ARG_OF_PERICENTER = 143.1911
MEAN_ANOMALY   = 226.0480

EPHEMERIS_TYPE = 0
CLASSIFICATION_TYPE = U
NORAD_CAT_ID   = 20262
ELEMENT_SET_NO = 999
REV_AT_EPOCH   = 66242
BSTAR          = .10212771E-3
MEAN_MOTION_DOT = .367E-5
MEAN_MOTION_DDOT = 0

CCSDS_OMM_VERS = 2.0
CREATION_DATE  = 
ORIGINATOR     = 

OBJECT_NAME    = DELTA 1 R/B
OBJECT_ID      = 1989-089B
CENTER_NAME    = EARTH
REF_FRAME      = TEME
TIME_SYSTEM    = UTC
MEAN_ELEMENT_THEORY = SGP/SGP4

EPOCH          = 2026-03-27T13:18:24.283872
MEAN_MOTION    = 14.50677158
ECCENTRICITY   = .0070565
INCLINATION    = 97.0693
RA_OF_ASC_NODE = 291.1497
ARG_OF_PERICENTER = 66.6602
MEAN_ANOMALY   = 294.2000

EPHEMERIS_TYPE = 0
CLASSIFICATION_TYPE = U
NORAD_CAT_ID   = 20323
ELEMENT_SET_NO = 999
REV_AT_EPOCH   = 89832
BSTAR          = .83782E-4
MEAN_MOTION_DOT = .305E-5
MEAN_MOTION_DDOT = 0

CCSDS_OMM_VERS = 2.0
CREATION_DATE  = 
ORIGINATOR     = 

OBJECT_NAME    = ARIANE 40 R/B
OBJECT_ID      = 1990-005H
CENTER_NAME    = EARTH
REF_FRAME      = TEME
TIME_SYSTEM    = UTC
MEAN_ELEMENT_THEORY = SGP/SGP4

EPOCH          = 2026-03-27T17:48:43.182144
MEAN_MOTION    = 14.39881884
ECCENTRICITY   = .00109286
INCLINATION    = 98.3045
RA_OF_ASC_NODE = 146.8624
ARG_OF_PERICENTER = 145.6749
MEAN_ANOMALY   = 214.5148

EPHEMERIS_TYPE = 0
CLASSIFICATION_TYPE = U
NORAD_CAT_ID   = 20443
ELEMENT_SET_NO = 999
REV_AT_EPOCH   = 89540
BSTAR          = .89344048E-4
MEAN_MOTION_DOT = .239E-5
MEAN_MOTION_DDOT = 0

CCSDS_OMM_VERS = 2.0
CREATION_DATE  = 
ORIGINATOR     = 

OBJECT_NAME    = DELTA 2 R/B(1)
OBJECT_ID      = 1990-008B
CENTER_NAME    = EARTH
REF_FRAME      = TEME
TIME_SYSTEM    = UTC
MEAN_ELEMENT_THEORY = SGP/SGP4

EPOCH          = 2026-03-27T00:09:57.970944
MEAN_MOTION    = 15.58226849
ECCENTRICITY   = .00784044
INCLINATION    = 35.6038
RA_OF_ASC_NODE = 61.0117
ARG_OF_PERICENTER = 60.4502
MEAN_ANOMALY   = 300.4023

EPHEMERIS_TYPE = 0
CLASSIFICATION_TYPE = U
NORAD_CAT_ID   = 20453
ELEMENT_SET_NO = 999
REV_AT_EPOCH   = 92883
BSTAR          = .81030003E-3
MEAN_MOTION_DOT = .73879E-3
MEAN_MOTION_DDOT = 0

